[{"OBJECT_NAME":"STARLINK-1954","OBJECT_ID":"2021-009H","EPOCH":"2026-03-09T23:20:25.352160","MEAN_MOTION":15.30849174,"ECCENTRICITY":0.00046184,"INCLINATION":53.0574,"RA_OF_ASC_NODE":8.8654,"ARG_OF_PERICENTER":103.3293,"MEAN_ANOMALY":256.8222,"EPHEMERIS_TYPE":0,"CLASSIFICATION_TYPE":"U","NORAD_CAT_ID":47555,"ELEMENT_SET_NO":999,"REV_AT_EPOCH":28100,"BSTAR":0.0022371791,"MEAN_MOTION_DOT":0.00067883,"MEAN_MOTION_DDOT":0},{"OBJECT_NAME":"STARLINK-32122","OBJECT_ID":"2024-132H","EPOCH":"2026-03-09T09:16:58.477152","MEAN_MOTION":15.30187053,"ECCENTRICITY":0.0001171,"INCLINATION":53.1611,"RA_OF_ASC_NODE":53.8644,"ARG_OF_PERICENTER":84.9791,"MEAN_ANOMALY":275.1343,"EPHEMERIS_TYPE":0,"CLASSIFICATION_TYPE":"U","NORAD_CAT_ID":60285,"ELEMENT_SET_NO":999,"REV_AT_EPOCH":9151,"BSTAR":1.7539161e-5,"MEAN_MOTION_DOT":1.6e-6,"MEAN_MOTION_DDOT":0}]
